STARLINK-1622
1 16128C 20057M   21326.15487986 -.00003614  00000-0 -24204-3 0  3262
2 16128  53.0536 118.0528 0001647  71.9902 200.6481 15.06417905    16
